{"type": "FeatureCollection", "features": [ {"type": "Feature", "properties": {"norad_id": 66707, "name": "FLOCK 4H-4", "group": "last-30-days", "lat": -80.16109604289274, "lon": -160.1301250503861, "alt_km": 519.192192762699, "timestamp": "2025-12-23T05:02:10.749212+00:00", "meta": {"OBJECT_NAME": "FLOCK 4H-4", "OBJECT_ID": "2025-276AT", "EPOCH": "2025-12-22T21:32:47.664096", "MEAN_MOTION": 15.17208876, "ECCENTRICITY": 0.00036108, "INCLINATION": 97.4428, "RA_OF_ASC_NODE": 68.4824, "ARG_OF_PERICENTER": 252.2499, "MEAN_ANOMALY": 107.834, "EPHEMERIS_TYPE": 0, "CLASSIFICATION_TYPE": "U", "NORAD_CAT_ID": 66707, "ELEMENT_SET_NO": 999, "REV_AT_EPOCH": 366, "BSTAR": 0.00053579479, "MEAN_MOTION_DOT": 0.00010592, "MEAN_MOTION_DDOT": 0}, "tle": {"line1": "1 66707U 25276AT  25356.89777389  .00010592  00000+0  53579-3 0  9995", "line2": "2 66707  97.4428  68.4824 0003610 252.2499 107.8340 15.17208876  3660"}}, "geometry": {"type": "Point", "coordinates": [-160.1301250503861, -80.16109604289274]}}, {"type": "Feature", "properties": {"norad_id": 66708, "name": "FLOCK 4H-5", "group": "last-30-days", "lat": -12.830221043776788, "lon": 70.51549727598547, "alt_km": 516.5915861193698, "timestamp": "2025-12-23T05:02:10.749223+00:00", "meta": {"OBJECT_NAME": "FLOCK 4H-5", "OBJECT_ID": "2025-276AU", "EPOCH": "2025-12-22T21:11:02.037408", "MEAN_MOTION": 15.18166511, "ECCENTRICITY": 0.00012382, "INCLINATION": 97.4385, "RA_OF_ASC_NODE": 68.4887, "ARG_OF_PERICENTER": 126.8408, "MEAN_ANOMALY": 233.294, "EPHEMERIS_TYPE": 0, "CLASSIFICATION_TYPE": "U", "NORAD_CAT_ID": 66708, "ELEMENT_SET_NO": 999, "REV_AT_EPOCH": 366, "BSTAR": 0.0005324754, "MEAN_MOTION_DOT": 0.00010819, "MEAN_MOTION_DDOT": 0}, "tle": {"line1": "1 66708U 25276AU  25356.88266247  .00010819  00000+0  53248-3 0  9996", "line2": "2 66708  97.4385  68.4887 0001238 126.8408 233.2940 15.18166511  3662"}}, "geometry": {"type": "Point", "coordinates": [70.51549727598547, -12.830221043776788]}}, {"type": "Feature", "properties": {"norad_id": 66709, "name": "FLOCK 4H-6", "group": "last-30-days", "lat": -32.852389821379596, "lon": 73.66265314892433, "alt_km": 519.2713946657368, "timestamp": "2025-12-23T05:02:10.749233+00:00", "meta": {"OBJECT_NAME": "FLOCK 4H-6", "OBJECT_ID": "2025-276AV", "EPOCH": "2025-12-22T21:16:17.724864", "MEAN_MOTION": 15.17913551, "ECCENTRICITY": 0.00026288, "INCLINATION": 97.4432, "RA_OF_ASC_NODE": 68.5017, "ARG_OF_PERICENTER": 206.8236, "MEAN_ANOMALY": 153.2863, "EPHEMERIS_TYPE": 0, "CLASSIFICATION_TYPE": "U", "NORAD_CAT_ID": 66709, "ELEMENT_SET_NO": 999, "REV_AT_EPOCH": 366, "BSTAR": 0.00055004028, "MEAN_MOTION_DOT": 0.00011098, "MEAN_MOTION_DDOT": 0}, "tle": {"line1": "1 66709U 25276AV  25356.88631626  .00011098  00000+0  55004-3 0  9996", "line2": "2 66709  97.4432  68.5017 0002628 206.8236 153.2863 15.17913551  3662"}}, "geometry": {"type": "Point", "coordinates": [73.66265314892433, -32.852389821379596]}}, {"type": "Feature", "properties": {"norad_id": 66710, "name": "FLOCK 4H-7", "group": "last-30-days", "lat": -72.29660224727488, "lon": 92.94518614241305, "alt_km": 520.0395144243184, "timestamp": "2025-12-23T05:02:10.749243+00:00", "meta": {"OBJECT_NAME": "FLOCK 4H-7", "OBJECT_ID": "2025-276AW", "EPOCH": "2025-12-22T21:26:55.008672", "MEAN_MOTION": 15.17483166, "ECCENTRICITY": 0.00010483, "INCLINATION": 97.4391, "RA_OF_ASC_NODE": 68.4716, "ARG_OF_PERICENTER": 292.7544, "MEAN_ANOMALY": 67.3579, "EPHEMERIS_TYPE": 0, "CLASSIFICATION_TYPE": "U", "NORAD_CAT_ID": 66710, "ELEMENT_SET_NO": 999, "REV_AT_EPOCH": 366, "BSTAR": 0.00031462263, "MEAN_MOTION_DOT": 6.237e-05, "MEAN_MOTION_DDOT": 0}, "tle": {"line1": "1 66710U 25276AW  25356.89369223  .00006237  00000+0  31462-3 0  9991", "line2": "2 66710  97.4391  68.4716 0001048 292.7544  67.3579 15.17483166  3667"}}, "geometry": {"type": "Point", "coordinates": [92.94518614241305, -72.29660224727488]}}, {"type": "Feature", "properties": {"norad_id": 66711, "name": "FLOCK 4H-8", "group": "last-30-days", "lat": -80.54275921098106, "lon": 120.505357591921, "alt_km": 542.2579477499421, "timestamp": "2025-12-23T05:02:10.749253+00:00", "meta": {"OBJECT_NAME": "FLOCK 4H-8", "OBJECT_ID": "2025-276AX", "EPOCH": "2025-12-22T21:28:21.387936", "MEAN_MOTION": 15.13819951, "ECCENTRICITY": 0.00107375, "INCLINATION": 97.4433, "RA_OF_ASC_NODE": 68.4911, "ARG_OF_PERICENTER": 64.6838, "MEAN_ANOMALY": 295.5505, "EPHEMERIS_TYPE": 0, "CLASSIFICATION_TYPE": "U", "NORAD_CAT_ID": 66711, "ELEMENT_SET_NO": 999, "REV_AT_EPOCH": 366, "BSTAR": -0.11560989, "MEAN_MOTION_DOT": -0.01897114, "MEAN_MOTION_DDOT": 0}, "tle": {"line1": "1 66711U 25276AX  25356.89469199 -.01897114  00000+0 -11561+0 0  9994", "line2": "2 66711  97.4433  68.4911 0010737  64.6838 295.5505 15.13819951  3664"}}, "geometry": {"type": "Point", "coordinates": [120.505357591921, -80.54275921098106]}}, {"type": "Feature", "properties": {"norad_id": 66712, "name": "FLOCK 4H-9", "group": "last-30-days", "lat": -33.89157004117315, "lon": 73.85559355671012, "alt_km": 519.0557350307945, "timestamp": "2025-12-23T05:02:10.749265+00:00", "meta": {"OBJECT_NAME": "FLOCK 4H-9", "OBJECT_ID": "2025-276AY", "EPOCH": "2025-12-22T21:16:34.448448", "MEAN_MOTION": 15.17918122, "ECCENTRICITY": 0.00026925, "INCLINATION": 97.4425, "RA_OF_ASC_NODE": 68.4998, "ARG_OF_PERICENTER": 215.5676, "MEAN_ANOMALY": 144.5379, "EPHEMERIS_TYPE": 0, "CLASSIFICATION_TYPE": "U", "NORAD_CAT_ID": 66712, "ELEMENT_SET_NO": 999, "REV_AT_EPOCH": 366, "BSTAR": 0.00056939581, "MEAN_MOTION_DOT": 0.00011493, "MEAN_MOTION_DDOT": 0}, "tle": {"line1": "1 66712U 25276AY  25356.88650982  .00011493  00000+0  56940-3 0  9995", "line2": "2 66712  97.4425  68.4998 0002692 215.5676 144.5379 15.17918122  3665"}}, "geometry": {"type": "Point", "coordinates": [73.85559355671012, -33.89157004117315]}}, {"type": "Feature", "properties": {"norad_id": 66713, "name": "FLOCK 4H-10", "group": "last-30-days", "lat": -82.04087529116127, "lon": 179.61154112441767, "alt_km": 519.0539663565442, "timestamp": "2025-12-23T05:02:10.749277+00:00", "meta": {"OBJECT_NAME": "FLOCK 4H-10", "OBJECT_ID": "2025-276AZ", "EPOCH": "2025-12-22T19:56:53.544192", "MEAN_MOTION": 15.17278824, "ECCENTRICITY": 0.00036603, "INCLINATION": 97.4398, "RA_OF_ASC_NODE": 68.4091, "ARG_OF_PERICENTER": 246.9816, "MEAN_ANOMALY": 113.1032, "EPHEMERIS_TYPE": 0, "CLASSIFICATION_TYPE": "U", "NORAD_CAT_ID": 66713, "ELEMENT_SET_NO": 999, "REV_AT_EPOCH": 365, "BSTAR": 0.00077109887, "MEAN_MOTION_DOT": 0.00015314, "MEAN_MOTION_DDOT": 0}, "tle": {"line1": "1 66713U 25276AZ  25356.83117528  .00015314  00000+0  77110-3 0  9993", "line2": "2 66713  97.4398  68.4091 0003660 246.9816 113.1032 15.17278824  3654"}}, "geometry": {"type": "Point", "coordinates": [179.61154112441767, -82.04087529116127]}}, {"type": "Feature", "properties": {"norad_id": 66714, "name": "FLOCK 4H-11", "group": "last-30-days", "lat": -62.70599755023679, "lon": 83.47661080432219, "alt_km": 518.3213893651346, "timestamp": "2025-12-23T05:02:10.749288+00:00", "meta": {"OBJECT_NAME": "FLOCK 4H-11", "OBJECT_ID": "2025-276BA", "EPOCH": "2025-12-22T15:04:33.788640", "MEAN_MOTION": 15.17781228, "ECCENTRICITY": 0.00021529, "INCLINATION": 97.4416, "RA_OF_ASC_NODE": 68.2317, "ARG_OF_PERICENTER": 278.4399, "MEAN_ANOMALY": 81.6591, "EPHEMERIS_TYPE": 0, "CLASSIFICATION_TYPE": "U", "NORAD_CAT_ID": 66714, "ELEMENT_SET_NO": 999, "REV_AT_EPOCH": 362, "BSTAR": 0.00068051358, "MEAN_MOTION_DOT": 0.00013699, "MEAN_MOTION_DDOT": 0}, "tle": {"line1": "1 66714U 25276BA  25356.62816885  .00013699  00000+0  68051-3 0  9991", "line2": "2 66714  97.4416  68.2317 0002152 278.4399  81.6591 15.17781228  3629"}}, "geometry": {"type": "Point", "coordinates": [83.47661080432219, -62.70599755023679]}}, {"type": "Feature", "properties": {"norad_id": 66715, "name": "FLOCK 4H-12", "group": "last-30-days", "lat": -22.363409495089257, "lon": 71.88633257887216, "alt_km": 518.2953216752412, "timestamp": "2025-12-23T05:02:10.749299+00:00", "meta": {"OBJECT_NAME": "FLOCK 4H-12", "OBJECT_ID": "2025-276BB", "EPOCH": "2025-12-22T21:13:32.776032", "MEAN_MOTION": 15.18077418, "ECCENTRICITY": 0.00019375, "INCLINATION": 97.4394, "RA_OF_ASC_NODE": 68.4847, "ARG_OF_PERICENTER": 185.2659, "MEAN_ANOMALY": 174.8555, "EPHEMERIS_TYPE": 0, "CLASSIFICATION_TYPE": "U", "NORAD_CAT_ID": 66715, "ELEMENT_SET_NO": 999, "REV_AT_EPOCH": 397, "BSTAR": 0.00055346515, "MEAN_MOTION_DOT": 0.0001122, "MEAN_MOTION_DDOT": 0}, "tle": {"line1": "1 66715U 25276BB  25356.88440713  .00011220  00000+0  55347-3 0  9995", "line2": "2 66715  97.4394  68.4847 0001937 185.2659 174.8555 15.18077418  3972"}}, "geometry": {"type": "Point", "coordinates": [71.88633257887216, -22.363409495089257]}}, {"type": "Feature", "properties": {"norad_id": 66716, "name": "FLOCK 4H-13", "group": "last-30-days", "lat": -11.055332930441097, "lon": 70.28798267580599, "alt_km": 516.6803863791283, "timestamp": "2025-12-23T05:02:10.749311+00:00", "meta": {"OBJECT_NAME": "FLOCK 4H-13", "OBJECT_ID": "2025-276BC", "EPOCH": "2025-12-22T21:10:34.176000", "MEAN_MOTION": 15.18190815, "ECCENTRICITY": 0.00016617, "INCLINATION": 97.4432, "RA_OF_ASC_NODE": 68.5021, "ARG_OF_PERICENTER": 139.9033, "MEAN_ANOMALY": 220.2324, "EPHEMERIS_TYPE": 0, "CLASSIFICATION_TYPE": "U", "NORAD_CAT_ID": 66716, "ELEMENT_SET_NO": 999, "REV_AT_EPOCH": 366, "BSTAR": 0.00055448316, "MEAN_MOTION_DOT": 0.00011278, "MEAN_MOTION_DDOT": 0}, "tle": {"line1": "1 66716U 25276BC  25356.88234000  .00011278  00000+0  55448-3 0  9991", "line2": "2 66716  97.4432  68.5021 0001661 139.9033 220.2324 15.18190815  3660"}}, "geometry": {"type": "Point", "coordinates": [70.28798267580599, -11.055332930441097]}}]}